[{"OBJECT_NAME":"ONEWEB-0691","OBJECT_ID":"2024-188F","EPOCH":"2026-03-05T21:21:39.313440","MEAN_MOTION":13.11416808,"ECCENTRICITY":0.00016172,"INCLINATION":87.8876,"RA_OF_ASC_NODE":41.4941,"ARG_OF_PERICENTER":70.944,"MEAN_ANOMALY":289.1863,"EPHEMERIS_TYPE":0,"CLASSIFICATION_TYPE":"U","NORAD_CAT_ID":61599,"ELEMENT_SET_NO":999,"REV_AT_EPOCH":7094,"BSTAR":-0.0011107794,"MEAN_MOTION_DOT":-3.81e-6,"MEAN_MOTION_DDOT":0},{"OBJECT_NAME":"ONEWEB-0692","OBJECT_ID":"2024-188G","EPOCH":"2026-03-05T23:40:50.334816","MEAN_MOTION":13.11417432,"ECCENTRICITY":0.00027303,"INCLINATION":87.885,"RA_OF_ASC_NODE":41.6082,"ARG_OF_PERICENTER":90.314,"MEAN_ANOMALY":269.8301,"EPHEMERIS_TYPE":0,"CLASSIFICATION_TYPE":"U","NORAD_CAT_ID":61600,"ELEMENT_SET_NO":999,"REV_AT_EPOCH":7094,"BSTAR":0.00087539627,"MEAN_MOTION_DOT":3.23e-6,"MEAN_MOTION_DDOT":0},{"OBJECT_NAME":"ONEWEB-0693","OBJECT_ID":"2024-188H","EPOCH":"2026-03-05T22:07:53.423040","MEAN_MOTION":13.17650836,"ECCENTRICITY":0.00012741,"INCLINATION":87.9129,"RA_OF_ASC_NODE":26.4126,"ARG_OF_PERICENTER":105.7901,"MEAN_ANOMALY":254.3371,"EPHEMERIS_TYPE":0,"CLASSIFICATION_TYPE":"U","NORAD_CAT_ID":61601,"ELEMENT_SET_NO":999,"REV_AT_EPOCH":7228,"BSTAR":-8.6145e-7,"MEAN_MOTION_DOT":1.3e-7,"MEAN_MOTION_DDOT":0},{"OBJECT_NAME":"ONEWEB-0695","OBJECT_ID":"2024-188J","EPOCH":"2026-03-05T21:16:46.762176","MEAN_MOTION":13.11418374,"ECCENTRICITY":0.00023696,"INCLINATION":87.8858,"RA_OF_ASC_NODE":41.619,"ARG_OF_PERICENTER":80.3571,"MEAN_ANOMALY":279.7825,"EPHEMERIS_TYPE":0,"CLASSIFICATION_TYPE":"U","NORAD_CAT_ID":61602,"ELEMENT_SET_NO":999,"REV_AT_EPOCH":7092,"BSTAR":-0.0012280254,"MEAN_MOTION_DOT":-4.23e-6,"MEAN_MOTION_DDOT":0},{"OBJECT_NAME":"ONEWEB-0697","OBJECT_ID":"2024-188K","EPOCH":"2026-03-05T22:03:11.025504","MEAN_MOTION":13.11416606,"ECCENTRICITY":0.00026146,"INCLINATION":87.8856,"RA_OF_ASC_NODE":41.6019,"ARG_OF_PERICENTER":90.372,"MEAN_ANOMALY":269.7708,"EPHEMERIS_TYPE":0,"CLASSIFICATION_TYPE":"U","NORAD_CAT_ID":61603,"ELEMENT_SET_NO":999,"REV_AT_EPOCH":7091,"BSTAR":0.0016312392,"MEAN_MOTION_DOT":5.91e-6,"MEAN_MOTION_DDOT":0},{"OBJECT_NAME":"ONEWEB-0698","OBJECT_ID":"2024-188L","EPOCH":"2026-03-05T23:21:17.786592","MEAN_MOTION":13.11418239,"ECCENTRICITY":0.00025989,"INCLINATION":87.8851,"RA_OF_ASC_NODE":41.6072,"ARG_OF_PERICENTER":106.8583,"MEAN_ANOMALY":253.283,"EPHEMERIS_TYPE":0,"CLASSIFICATION_TYPE":"U","NORAD_CAT_ID":61604,"ELEMENT_SET_NO":999,"REV_AT_EPOCH":7094,"BSTAR":-0.00046093438,"MEAN_MOTION_DOT":-1.51e-6,"MEAN_MOTION_DDOT":0},{"OBJECT_NAME":"ONEWEB-0699","OBJECT_ID":"2024-188M","EPOCH":"2026-03-05T23:31:27.602976","MEAN_MOTION":13.10370461,"ECCENTRICITY":0.00024612,"INCLINATION":87.8773,"RA_OF_ASC_NODE":56.8142,"ARG_OF_PERICENTER":95.0115,"MEAN_ANOMALY":265.1293,"EPHEMERIS_TYPE":0,"CLASSIFICATION_TYPE":"U","NORAD_CAT_ID":61605,"ELEMENT_SET_NO":999,"REV_AT_EPOCH":6979,"BSTAR":0.00031131876,"MEAN_MOTION_DOT":1.21e-6,"MEAN_MOTION_DDOT":0},{"OBJECT_NAME":"ONEWEB-0700","OBJECT_ID":"2024-188N","EPOCH":"2026-03-05T23:33:50.683968","MEAN_MOTION":13.1036938,"ECCENTRICITY":0.00025348,"INCLINATION":87.8783,"RA_OF_ASC_NODE":56.708,"ARG_OF_PERICENTER":86.5825,"MEAN_ANOMALY":273.5593,"EPHEMERIS_TYPE":0,"CLASSIFICATION_TYPE":"U","NORAD_CAT_ID":61606,"ELEMENT_SET_NO":999,"REV_AT_EPOCH":6978,"BSTAR":-9.4001568e-5,"MEAN_MOTION_DOT":-2.0e-7,"MEAN_MOTION_DDOT":0},{"OBJECT_NAME":"ONEWEB-0701","OBJECT_ID":"2024-188P","EPOCH":"2026-03-05T22:07:46.562880","MEAN_MOTION":13.10372562,"ECCENTRICITY":0.0002628,"INCLINATION":87.8774,"RA_OF_ASC_NODE":56.8254,"ARG_OF_PERICENTER":95.7055,"MEAN_ANOMALY":264.4372,"EPHEMERIS_TYPE":0,"CLASSIFICATION_TYPE":"U","NORAD_CAT_ID":61607,"ELEMENT_SET_NO":999,"REV_AT_EPOCH":6978,"BSTAR":-0.0017182595,"MEAN_MOTION_DOT":-5.87e-6,"MEAN_MOTION_DDOT":0},{"OBJECT_NAME":"ONEWEB-0702","OBJECT_ID":"2024-188Q","EPOCH":"2026-03-05T22:37:20.283168","MEAN_MOTION":13.11416375,"ECCENTRICITY":0.00028814,"INCLINATION":87.8868,"RA_OF_ASC_NODE":41.4999,"ARG_OF_PERICENTER":86.5771,"MEAN_ANOMALY":273.5687,"EPHEMERIS_TYPE":0,"CLASSIFICATION_TYPE":"U","NORAD_CAT_ID":61608,"ELEMENT_SET_NO":999,"REV_AT_EPOCH":7095,"BSTAR":-0.00037232638,"MEAN_MOTION_DOT":-1.19e-6,"MEAN_MOTION_DDOT":0},{"OBJECT_NAME":"ONEWEB-0704","OBJECT_ID":"2024-188R","EPOCH":"2026-03-05T23:41:01.189248","MEAN_MOTION":13.10370768,"ECCENTRICITY":0.00028513,"INCLINATION":87.8781,"RA_OF_ASC_NODE":56.7884,"ARG_OF_PERICENTER":87.3371,"MEAN_ANOMALY":272.8083,"EPHEMERIS_TYPE":0,"CLASSIFICATION_TYPE":"U","NORAD_CAT_ID":61609,"ELEMENT_SET_NO":999,"REV_AT_EPOCH":6977,"BSTAR":-0.00077245747,"MEAN_MOTION_DOT":-2.57e-6,"MEAN_MOTION_DDOT":0},{"OBJECT_NAME":"ONEWEB-0705","OBJECT_ID":"2024-188S","EPOCH":"2026-03-05T23:48:10.800288","MEAN_MOTION":13.10371009,"ECCENTRICITY":0.0002623,"INCLINATION":87.8774,"RA_OF_ASC_NODE":56.8009,"ARG_OF_PERICENTER":65.8317,"MEAN_ANOMALY":294.3084,"EPHEMERIS_TYPE":0,"CLASSIFICATION_TYPE":"U","NORAD_CAT_ID":61610,"ELEMENT_SET_NO":999,"REV_AT_EPOCH":6194,"BSTAR":-0.0012521134,"MEAN_MOTION_DOT":-4.24e-6,"MEAN_MOTION_DDOT":0},{"OBJECT_NAME":"ONEWEB-0706","OBJECT_ID":"2024-188T","EPOCH":"2026-03-05T23:26:41.006400","MEAN_MOTION":13.10370397,"ECCENTRICITY":0.00024718,"INCLINATION":87.8767,"RA_OF_ASC_NODE":56.8164,"ARG_OF_PERICENTER":84.2552,"MEAN_ANOMALY":275.8857,"EPHEMERIS_TYPE":0,"CLASSIFICATION_TYPE":"U","NORAD_CAT_ID":61611,"ELEMENT_SET_NO":999,"REV_AT_EPOCH":6986,"BSTAR":0.00072201673,"MEAN_MOTION_DOT":2.65e-6,"MEAN_MOTION_DDOT":0},{"OBJECT_NAME":"ONEWEB-0707","OBJECT_ID":"2024-188U","EPOCH":"2026-03-05T23:36:14.105376","MEAN_MOTION":13.10369805,"ECCENTRICITY":0.00024628,"INCLINATION":87.8775,"RA_OF_ASC_NODE":56.8022,"ARG_OF_PERICENTER":84.6719,"MEAN_ANOMALY":275.4689,"EPHEMERIS_TYPE":0,"CLASSIFICATION_TYPE":"U","NORAD_CAT_ID":61612,"ELEMENT_SET_NO":999,"REV_AT_EPOCH":6980,"BSTAR":-0.00017467372,"MEAN_MOTION_DOT":-4.8e-7,"MEAN_MOTION_DDOT":0},{"OBJECT_NAME":"ONEWEB-0708","OBJECT_ID":"2024-188V","EPOCH":"2026-03-05T22:12:33.243264","MEAN_MOTION":13.10373233,"ECCENTRICITY":0.00019507,"INCLINATION":87.8768,"RA_OF_ASC_NODE":56.842,"ARG_OF_PERICENTER":69.3182,"MEAN_ANOMALY":290.8154,"EPHEMERIS_TYPE":0,"CLASSIFICATION_TYPE":"U","NORAD_CAT_ID":61613,"ELEMENT_SET_NO":999,"REV_AT_EPOCH":6977,"BSTAR":-0.0020301224,"MEAN_MOTION_DOT":-6.96e-6,"MEAN_MOTION_DDOT":0}]
