ONEWEB-0691             
1 61599U 24188F   26064.89003835 -.00000381  00000+0 -11108-2 0  9993
2 61599  87.8876  41.4941 0001617  70.9440 289.1863 13.11416808 70948
ONEWEB-0692             
1 61600U 24188G   26064.98669369  .00000323  00000+0  87540-3 0  9994
2 61600  87.8850  41.6082 0002730  90.3140 269.8301 13.11417432 70947
ONEWEB-0693             
1 61601U 24188H   26064.92214610  .00000013  00000+0 -86145-6 0  9994
2 61601  87.9129  26.4126 0001274 105.7901 254.3371 13.17650836 72284
ONEWEB-0695             
1 61602U 24188J   26064.88665234 -.00000423  00000+0 -12280-2 0  9993
2 61602  87.8858  41.6190 0002369  80.3571 279.7825 13.11418374 70927
ONEWEB-0697             
1 61603U 24188K   26064.91887761  .00000591  00000+0  16312-2 0  9993
2 61603  87.8856  41.6019 0002614  90.3720 269.7708 13.11416606 70910
ONEWEB-0698             
1 61604U 24188L   26064.97312253 -.00000151  00000+0 -46093-3 0  9993
2 61604  87.8851  41.6072 0002598 106.8583 253.2830 13.11418239 70947
ONEWEB-0699             
1 61605U 24188M   26064.98018059  .00000121  00000+0  31132-3 0  9995
2 61605  87.8773  56.8142 0002461  95.0115 265.1293 13.10370461 69795
ONEWEB-0700             
1 61606U 24188N   26064.98183662 -.00000020  00000+0 -94002-4 0  9995
2 61606  87.8783  56.7080 0002534  86.5825 273.5593 13.10369380 69784
ONEWEB-0701             
1 61607U 24188P   26064.92206670 -.00000587  00000+0 -17183-2 0  9996
2 61607  87.8774  56.8254 0002628  95.7055 264.4372 13.10372562 69780
ONEWEB-0702             
1 61608U 24188Q   26064.94259587 -.00000119  00000+0 -37233-3 0  9994
2 61608  87.8868  41.4999 0002881  86.5771 273.5687 13.11416375 70958
ONEWEB-0704             
1 61609U 24188R   26064.98681932 -.00000257  00000+0 -77246-3 0  9993
2 61609  87.8781  56.7884 0002851  87.3371 272.8083 13.10370768 69771
ONEWEB-0705             
1 61610U 24188S   26064.99179167 -.00000424  00000+0 -12521-2 0  9998
2 61610  87.8774  56.8009 0002623  65.8317 294.3084 13.10371009 61943
ONEWEB-0706             
1 61611U 24188T   26064.97686350  .00000265  00000+0  72202-3 0  9998
2 61611  87.8767  56.8164 0002471  84.2552 275.8857 13.10370397 69865
ONEWEB-0707             
1 61612U 24188U   26064.98349659 -.00000048  00000+0 -17467-3 0  9991
2 61612  87.8775  56.8022 0002462  84.6719 275.4689 13.10369805 69802
ONEWEB-0708             
1 61613U 24188V   26064.92538476 -.00000696  00000+0 -20301-2 0  9992
2 61613  87.8768  56.8420 0001950  69.3182 290.8154 13.10373233 69776
